{
  "type": "FeatureCollection",
  "features": [
    {
      "type": "Feature",
      "properties": {
        "norad_id": 66812,
        "name": "STARLINK-36054",
        "group": "last-30-days",
        "lat": -21.50107644367014,
        "lon": -150.69742615566275,
        "alt_km": 335.7452168154741,
        "timestamp": "2025-12-15T14:57:56.622154+00:00",
        "meta_object_name": "STARLINK-36054",
        "meta_object_id": "2025-278X",
        "meta_epoch": "2025-12-14T20:00:06.000192",
        "meta_mean_motion": 15.80983975,
        "meta_eccentricity": 0.00014705,
        "meta_inclination": 42.9973,
        "meta_ra_of_asc_node": 239.142,
        "meta_arg_of_pericenter": 269.4898,
        "meta_mean_anomaly": 238.7137,
        "meta_ephemeris_type": 0,
        "meta_classification_type": "U",
        "meta_norad_cat_id": 66812,
        "meta_element_set_no": 999,
        "meta_rev_at_epoch": 329,
        "meta_bstar": -0.0080046209,
        "meta_mean_motion_dot": -0.01426214,
        "meta_mean_motion_ddot": 0,
        "tle_line1": "1 66812U 25278X   25348.83340278 -.01426214  00000+0 -80046-2 0  9995",
        "tle_line2": "2 66812  42.9973 239.1420 0001470 269.4898 238.7137 15.80983975  3298"
      },
      "geometry": {
        "type": "Point",
        "coordinates": [
          -150.69742615566275,
          -21.50107644367014
        ]
      }
    },
    {
      "type": "Feature",
      "properties": {
        "norad_id": 66813,
        "name": "STARLINK-36042",
        "group": "last-30-days",
        "lat": -20.244699756535937,
        "lon": -149.00977392878607,
        "alt_km": 335.70999755750927,
        "timestamp": "2025-12-15T14:57:56.622163+00:00",
        "meta_object_name": "STARLINK-36042",
        "meta_object_id": "2025-278Y",
        "meta_epoch": "2025-12-14T20:00:06.000192",
        "meta_mean_motion": 15.80979173,
        "meta_eccentricity": 0.00014626,
        "meta_inclination": 42.9973,
        "meta_ra_of_asc_node": 239.1366,
        "meta_arg_of_pericenter": 270.1324,
        "meta_mean_anomaly": 240.1228,
        "meta_ephemeris_type": 0,
        "meta_classification_type": "U",
        "meta_norad_cat_id": 66813,
        "meta_element_set_no": 999,
        "meta_rev_at_epoch": 329,
        "meta_bstar": -0.00804609,
        "meta_mean_motion_dot": -0.01432476,
        "meta_mean_motion_ddot": 0,
        "tle_line1": "1 66813U 25278Y   25348.83340278 -.01432476  00000+0 -80461-2 0  9994",
        "tle_line2": "2 66813  42.9973 239.1366 0001462 270.1324 240.1228 15.80979173  3295"
      },
      "geometry": {
        "type": "Point",
        "coordinates": [
          -149.00977392878607,
          -20.244699756535937
        ]
      }
    },
    {
      "type": "Feature",
      "properties": {
        "norad_id": 66814,
        "name": "STARLINK-35984",
        "group": "last-30-days",
        "lat": -11.595051675903543,
        "lon": -138.44749676223853,
        "alt_km": 336.67723573869443,
        "timestamp": "2025-12-15T14:57:56.622171+00:00",
        "meta_object_name": "STARLINK-35984",
        "meta_object_id": "2025-278Z",
        "meta_epoch": "2025-12-14T20:00:06.000192",
        "meta_mean_motion": 15.80692572,
        "meta_eccentricity": 0.00014503,
        "meta_inclination": 42.9971,
        "meta_ra_of_asc_node": 239.0997,
        "meta_arg_of_pericenter": 264.4451,
        "meta_mean_anomaly": 260.2768,
        "meta_ephemeris_type": 0,
        "meta_classification_type": "U",
        "meta_norad_cat_id": 66814,
        "meta_element_set_no": 999,
        "meta_rev_at_epoch": 338,
        "meta_bstar": -0.0088543592,
        "meta_mean_motion_dot": -0.01540313,
        "meta_mean_motion_ddot": 0,
        "tle_line1": "1 66814U 25278Z   25348.83340278 -.01540313  00000+0 -88544-2 0  9995",
        "tle_line2": "2 66814  42.9971 239.0997 0001450 264.4451 260.2768 15.80692572  3384"
      },
      "geometry": {
        "type": "Point",
        "coordinates": [
          -138.44749676223853,
          -11.595051675903543
        ]
      }
    },
    {
      "type": "Feature",
      "properties": {
        "norad_id": 66815,
        "name": "STARLINK-35985",
        "group": "last-30-days",
        "lat": -12.95070665358881,
        "lon": -140.00987883821242,
        "alt_km": 336.36964625428755,
        "timestamp": "2025-12-15T14:57:56.622180+00:00",
        "meta_object_name": "STARLINK-35985",
        "meta_object_id": "2025-278AA",
        "meta_epoch": "2025-12-14T20:00:06.000192",
        "meta_mean_motion": 15.80714217,
        "meta_eccentricity": 0.00014085,
        "meta_inclination": 42.9969,
        "meta_ra_of_asc_node": 239.1049,
        "meta_arg_of_pericenter": 276.948,
        "meta_mean_anomaly": 245.6641,
        "meta_ephemeris_type": 0,
        "meta_classification_type": "U",
        "meta_norad_cat_id": 66815,
        "meta_element_set_no": 999,
        "meta_rev_at_epoch": 338,
        "meta_bstar": -0.0088330717,
        "meta_mean_motion_dot": -0.01538398,
        "meta_mean_motion_ddot": 0,
        "tle_line1": "1 66815U 25278AA  25348.83340278 -.01538398  00000+0 -88331-2 0  9990",
        "tle_line2": "2 66815  42.9969 239.1049 0001408 276.9480 245.6641 15.80714217  3382"
      },
      "geometry": {
        "type": "Point",
        "coordinates": [
          -140.00987883821242,
          -12.95070665358881
        ]
      }
    },
    {
      "type": "Feature",
      "properties": {
        "norad_id": 66816,
        "name": "STARLINK-36098",
        "group": "last-30-days",
        "lat": -18.871633019753233,
        "lon": -147.21955602989732,
        "alt_km": 335.65507553331463,
        "timestamp": "2025-12-15T14:57:56.622189+00:00",
        "meta_object_name": "STARLINK-36098",
        "meta_object_id": "2025-278AB",
        "meta_epoch": "2025-12-14T20:00:06.000192",
        "meta_mean_motion": 15.80950519,
        "meta_eccentricity": 0.00015448,
        "meta_inclination": 42.9973,
        "meta_ra_of_asc_node": 239.131,
        "meta_arg_of_pericenter": 272.991,
        "meta_mean_anomaly": 239.5524,
        "meta_ephemeris_type": 0,
        "meta_classification_type": "U",
        "meta_norad_cat_id": 66816,
        "meta_element_set_no": 999,
        "meta_rev_at_epoch": 313,
        "meta_bstar": -0.008119888,
        "meta_mean_motion_dot": -0.01442454,
        "meta_mean_motion_ddot": 0,
        "tle_line1": "1 66816U 25278AB  25348.83340278 -.01442454  00000+0 -81199-2 0  9993",
        "tle_line2": "2 66816  42.9973 239.1310 0001544 272.9910 239.5524 15.80950519  3136"
      },
      "geometry": {
        "type": "Point",
        "coordinates": [
          -147.21955602989732,
          -18.871633019753233
        ]
      }
    },
    {
      "type": "Feature",
      "properties": {
        "norad_id": 66817,
        "name": "STARLINK-35995",
        "group": "last-30-days",
        "lat": -15.994603701084909,
        "lon": -143.62589655468435,
        "alt_km": 335.905652017158,
        "timestamp": "2025-12-15T14:57:56.622200+00:00",
        "meta_object_name": "STARLINK-35995",
        "meta_object_id": "2025-278AC",
        "meta_epoch": "2025-12-14T20:00:06.000192",
        "meta_mean_motion": 15.80868139,
        "meta_eccentricity": 0.00014541,
        "meta_inclination": 42.9972,
        "meta_ra_of_asc_node": 239.1186,
        "meta_arg_of_pericenter": 276.794,
        "meta_mean_anomaly": 240.6072,
        "meta_ephemeris_type": 0,
        "meta_classification_type": "U",
        "meta_norad_cat_id": 66817,
        "meta_element_set_no": 999,
        "meta_rev_at_epoch": 329,
        "meta_bstar": -0.0084764367,
        "meta_mean_motion_dot": -0.01493119,
        "meta_mean_motion_ddot": 0,
        "tle_line1": "1 66817U 25278AC  25348.83340278 -.01493119  00000+0 -84764-2 0  9999",
        "tle_line2": "2 66817  42.9972 239.1186 0001454 276.7940 240.6072 15.80868139  3296"
      },
      "geometry": {
        "type": "Point",
        "coordinates": [
          -143.62589655468435,
          -15.994603701084909
        ]
      }
    },
    {
      "type": "Feature",
      "properties": {
        "norad_id": 66818,
        "name": "STARLINK-35994",
        "group": "last-30-days",
        "lat": -17.36331592567212,
        "lon": -145.3112765260203,
        "alt_km": 335.99119835157217,
        "timestamp": "2025-12-15T14:57:56.622211+00:00",
        "meta_object_name": "STARLINK-35994",
        "meta_object_id": "2025-278AD",
        "meta_epoch": "2025-12-14T20:00:06.000192",
        "meta_mean_motion": 15.80891004,
        "meta_eccentricity": 0.00015815,
        "meta_inclination": 42.9973,
        "meta_ra_of_asc_node": 239.1243,
        "meta_arg_of_pericenter": 268.8362,
        "meta_mean_anomaly": 246.3255,
        "meta_ephemeris_type": 0,
        "meta_classification_type": "U",
        "meta_norad_cat_id": 66818,
        "meta_element_set_no": 999,
        "meta_rev_at_epoch": 329,
        "meta_bstar": -0.0083482165,
        "meta_mean_motion_dot": -0.0147466,
        "meta_mean_motion_ddot": 0,
        "tle_line1": "1 66818U 25278AD  25348.83340278 -.01474660  00000+0 -83482-2 0  9996",
        "tle_line2": "2 66818  42.9973 239.1243 0001581 268.8362 246.3255 15.80891004  3296"
      },
      "geometry": {
        "type": "Point",
        "coordinates": [
          -145.3112765260203,
          -17.36331592567212
        ]
      }
    }
  ]
}